CS2                     
1 49262U 21088C   26068.73485932  .00018033  00000+0  56178-3 0  9999
2 49262  97.3928 134.2907 0011637  82.3491 277.9072 15.33255930245263
STARLINK-33944          
1 64209U 25117G   26068.20394545  .00030325  00000+0  10321-2 0  9992
2 64209  53.1606  41.7035 0001238  91.7874 268.3269 15.30192314 44489
